[{"OBJECT_NAME":"FENGYUN 1C DEB","OBJECT_ID":"1999-025PB","EPOCH":"2026-03-05T19:29:49.802208","MEAN_MOTION":13.85290733,"ECCENTRICITY":0.0169533,"INCLINATION":96.826,"RA_OF_ASC_NODE":7.4819,"ARG_OF_PERICENTER":152.2254,"MEAN_ANOMALY":236.857,"EPHEMERIS_TYPE":0,"CLASSIFICATION_TYPE":"U","NORAD_CAT_ID":30050,"ELEMENT_SET_NO":999,"REV_AT_EPOCH":96352,"BSTAR":0.0009570002,"MEAN_MOTION_DOT":1.192e-5,"MEAN_MOTION_DDOT":0},{"OBJECT_NAME":"FENGYUN 1C DEB","OBJECT_ID":"1999-025PD","EPOCH":"2026-03-05T15:09:03.658176","MEAN_MOTION":13.73074162,"ECCENTRICITY":0.0289229,"INCLINATION":99.2915,"RA_OF_ASC_NODE":92.9252,"ARG_OF_PERICENTER":15.3861,"MEAN_ANOMALY":95.8409,"EPHEMERIS_TYPE":0,"CLASSIFICATION_TYPE":"U","NORAD_CAT_ID":30052,"ELEMENT_SET_NO":999,"REV_AT_EPOCH":95692,"BSTAR":0.00068251,"MEAN_MOTION_DOT":8.09e-6,"MEAN_MOTION_DDOT":0},{"OBJECT_NAME":"FENGYUN 1C DEB","OBJECT_ID":"1999-025PE","EPOCH":"2026-03-06T00:52:52.708224","MEAN_MOTION":13.94941684,"ECCENTRICITY":0.03291603,"INCLINATION":98.5859,"RA_OF_ASC_NODE":237.472,"ARG_OF_PERICENTER":107.4722,"MEAN_ANOMALY":10.3467,"EPHEMERIS_TYPE":0,"CLASSIFICATION_TYPE":"U","NORAD_CAT_ID":30053,"ELEMENT_SET_NO":999,"REV_AT_EPOCH":96147,"BSTAR":0.0010424087,"MEAN_MOTION_DOT":2.166e-5,"MEAN_MOTION_DDOT":0},{"OBJECT_NAME":"FENGYUN 1C DEB","OBJECT_ID":"1999-025PF","EPOCH":"2026-03-06T08:00:54.131040","MEAN_MOTION":13.69969124,"ECCENTRICITY":0.02763361,"INCLINATION":99.3606,"RA_OF_ASC_NODE":100.4306,"ARG_OF_PERICENTER":147.6829,"MEAN_ANOMALY":279.0761,"EPHEMERIS_TYPE":0,"CLASSIFICATION_TYPE":"U","NORAD_CAT_ID":30054,"ELEMENT_SET_NO":999,"REV_AT_EPOCH":95493,"BSTAR":0.0005850117,"MEAN_MOTION_DOT":6.3e-6,"MEAN_MOTION_DDOT":0},{"OBJECT_NAME":"FENGYUN 1C DEB","OBJECT_ID":"1999-025PH","EPOCH":"2026-03-05T09:57:56.539872","MEAN_MOTION":13.74434685,"ECCENTRICITY":0.0296766,"INCLINATION":98.3293,"RA_OF_ASC_NODE":244.6121,"ARG_OF_PERICENTER":347.1428,"MEAN_ANOMALY":12.2272,"EPHEMERIS_TYPE":0,"CLASSIFICATION_TYPE":"U","NORAD_CAT_ID":30056,"ELEMENT_SET_NO":999,"REV_AT_EPOCH":95111,"BSTAR":0.0015937,"MEAN_MOTION_DOT":2.037e-5,"MEAN_MOTION_DDOT":0},{"OBJECT_NAME":"FENGYUN 1C DEB","OBJECT_ID":"1999-025PJ","EPOCH":"2026-03-05T15:30:39.462048","MEAN_MOTION":13.57320125,"ECCENTRICITY":0.028888,"INCLINATION":98.8734,"RA_OF_ASC_NODE":130.4561,"ARG_OF_PERICENTER":291.7316,"MEAN_ANOMALY":225.0098,"EPHEMERIS_TYPE":0,"CLASSIFICATION_TYPE":"U","NORAD_CAT_ID":30057,"ELEMENT_SET_NO":999,"REV_AT_EPOCH":94360,"BSTAR":0.0015661,"MEAN_MOTION_DOT":1.427e-5,"MEAN_MOTION_DDOT":0},{"OBJECT_NAME":"FENGYUN 1C DEB","OBJECT_ID":"1999-025PK","EPOCH":"2026-03-06T00:16:42.752352","MEAN_MOTION":13.48379257,"ECCENTRICITY":0.03143336,"INCLINATION":99.6523,"RA_OF_ASC_NODE":71.5497,"ARG_OF_PERICENTER":305.6686,"MEAN_ANOMALY":116.3557,"EPHEMERIS_TYPE":0,"CLASSIFICATION_TYPE":"U","NORAD_CAT_ID":30058,"ELEMENT_SET_NO":999,"REV_AT_EPOCH":93970,"BSTAR":0.0010246151,"MEAN_MOTION_DOT":8.15e-6,"MEAN_MOTION_DDOT":0},{"OBJECT_NAME":"FENGYUN 1C DEB","OBJECT_ID":"1999-025PL","EPOCH":"2026-03-05T22:11:07.109376","MEAN_MOTION":13.45538874,"ECCENTRICITY":0.03281236,"INCLINATION":98.831,"RA_OF_ASC_NODE":55.3448,"ARG_OF_PERICENTER":91.49,"MEAN_ANOMALY":301.3956,"EPHEMERIS_TYPE":0,"CLASSIFICATION_TYPE":"U","NORAD_CAT_ID":30059,"ELEMENT_SET_NO":999,"REV_AT_EPOCH":93916,"BSTAR":0.00036454762,"MEAN_MOTION_DOT":2.65e-6,"MEAN_MOTION_DDOT":0},{"OBJECT_NAME":"FENGYUN 1C DEB","OBJECT_ID":"1999-025PM","EPOCH":"2026-03-05T14:22:57.673632","MEAN_MOTION":13.44037069,"ECCENTRICITY":0.0343604,"INCLINATION":99.3142,"RA_OF_ASC_NODE":290.3028,"ARG_OF_PERICENTER":225.7402,"MEAN_ANOMALY":160.915,"EPHEMERIS_TYPE":0,"CLASSIFICATION_TYPE":"U","NORAD_CAT_ID":30060,"ELEMENT_SET_NO":999,"REV_AT_EPOCH":93356,"BSTAR":0.001459,"MEAN_MOTION_DOT":1.162e-5,"MEAN_MOTION_DDOT":0},{"OBJECT_NAME":"FENGYUN 1C DEB","OBJECT_ID":"1999-025PN","EPOCH":"2026-03-06T07:17:20.274432","MEAN_MOTION":13.47117028,"ECCENTRICITY":0.03670127,"INCLINATION":101.8771,"RA_OF_ASC_NODE":195.5159,"ARG_OF_PERICENTER":61.1351,"MEAN_ANOMALY":331.3063,"EPHEMERIS_TYPE":0,"CLASSIFICATION_TYPE":"U","NORAD_CAT_ID":30061,"ELEMENT_SET_NO":999,"REV_AT_EPOCH":93224,"BSTAR":0.0023624578,"MEAN_MOTION_DOT":2.11e-5,"MEAN_MOTION_DDOT":0},{"OBJECT_NAME":"FENGYUN 1C DEB","OBJECT_ID":"1999-025PP","EPOCH":"2026-03-06T00:09:44.574624","MEAN_MOTION":14.07241875,"ECCENTRICITY":0.00490743,"INCLINATION":98.781,"RA_OF_ASC_NODE":76.8135,"ARG_OF_PERICENTER":171.8756,"MEAN_ANOMALY":215.4286,"EPHEMERIS_TYPE":0,"CLASSIFICATION_TYPE":"U","NORAD_CAT_ID":30062,"ELEMENT_SET_NO":999,"REV_AT_EPOCH":98079,"BSTAR":0.00030194062,"MEAN_MOTION_DOT":4.69e-6,"MEAN_MOTION_DDOT":0},{"OBJECT_NAME":"FENGYUN 1C DEB","OBJECT_ID":"1999-025PQ","EPOCH":"2026-03-05T22:31:38.783712","MEAN_MOTION":14.15646643,"ECCENTRICITY":0.00310925,"INCLINATION":98.5336,"RA_OF_ASC_NODE":45.152,"ARG_OF_PERICENTER":256.032,"MEAN_ANOMALY":164.4899,"EPHEMERIS_TYPE":0,"CLASSIFICATION_TYPE":"U","NORAD_CAT_ID":30063,"ELEMENT_SET_NO":999,"REV_AT_EPOCH":98842,"BSTAR":9.1948316e-5,"MEAN_MOTION_DOT":1.39e-6,"MEAN_MOTION_DDOT":0},{"OBJECT_NAME":"FENGYUN 1C DEB","OBJECT_ID":"1999-025PR","EPOCH":"2026-03-05T23:46:12.523008","MEAN_MOTION":14.14339616,"ECCENTRICITY":0.00647485,"INCLINATION":98.6608,"RA_OF_ASC_NODE":78.517,"ARG_OF_PERICENTER":233.1069,"MEAN_ANOMALY":180.7274,"EPHEMERIS_TYPE":0,"CLASSIFICATION_TYPE":"U","NORAD_CAT_ID":30064,"ELEMENT_SET_NO":999,"REV_AT_EPOCH":98682,"BSTAR":0.00018010192,"MEAN_MOTION_DOT":3.08e-6,"MEAN_MOTION_DDOT":0},{"OBJECT_NAME":"FENGYUN 1C DEB","OBJECT_ID":"1999-025PS","EPOCH":"2026-03-05T21:34:11.279424","MEAN_MOTION":13.86953601,"ECCENTRICITY":0.013114,"INCLINATION":98.6971,"RA_OF_ASC_NODE":36.8889,"ARG_OF_PERICENTER":163.8692,"MEAN_ANOMALY":196.6702,"EPHEMERIS_TYPE":0,"CLASSIFICATION_TYPE":"U","NORAD_CAT_ID":30065,"ELEMENT_SET_NO":999,"REV_AT_EPOCH":96824,"BSTAR":0.00014172158,"MEAN_MOTION_DOT":1.38e-6,"MEAN_MOTION_DDOT":0},{"OBJECT_NAME":"FENGYUN 1C DEB","OBJECT_ID":"1999-025PT","EPOCH":"2026-03-06T05:28:29.155872","MEAN_MOTION":14.19175101,"ECCENTRICITY":0.01181506,"INCLINATION":98.6429,"RA_OF_ASC_NODE":58.57,"ARG_OF_PERICENTER":21.6902,"MEAN_ANOMALY":358.1712,"EPHEMERIS_TYPE":0,"CLASSIFICATION_TYPE":"U","NORAD_CAT_ID":30066,"ELEMENT_SET_NO":999,"REV_AT_EPOCH":99021,"BSTAR":0.00026652121,"MEAN_MOTION_DOT":5.55e-6,"MEAN_MOTION_DDOT":0},{"OBJECT_NAME":"FENGYUN 1C DEB","OBJECT_ID":"1999-025PU","EPOCH":"2026-03-06T06:56:40.704000","MEAN_MOTION":14.43979925,"ECCENTRICITY":0.01513937,"INCLINATION":98.7587,"RA_OF_ASC_NODE":318.8776,"ARG_OF_PERICENTER":127.5287,"MEAN_ANOMALY":350.7941,"EPHEMERIS_TYPE":0,"CLASSIFICATION_TYPE":"U","NORAD_CAT_ID":30067,"ELEMENT_SET_NO":999,"REV_AT_EPOCH":401,"BSTAR":0.00035542775,"MEAN_MOTION_DOT":1.344e-5,"MEAN_MOTION_DDOT":0},{"OBJECT_NAME":"FENGYUN 1C DEB","OBJECT_ID":"1999-025PV","EPOCH":"2026-03-05T21:37:13.278432","MEAN_MOTION":14.12110976,"ECCENTRICITY":0.01909834,"INCLINATION":98.7461,"RA_OF_ASC_NODE":55.6765,"ARG_OF_PERICENTER":111.9459,"MEAN_ANOMALY":250.2133,"EPHEMERIS_TYPE":0,"CLASSIFICATION_TYPE":"U","NORAD_CAT_ID":30068,"ELEMENT_SET_NO":999,"REV_AT_EPOCH":98517,"BSTAR":0.00016448489,"MEAN_MOTION_DOT":3.17e-6,"MEAN_MOTION_DDOT":0},{"OBJECT_NAME":"FENGYUN 1C DEB","OBJECT_ID":"1999-025PW","EPOCH":"2026-03-06T05:30:28.083744","MEAN_MOTION":14.05312179,"ECCENTRICITY":0.00487723,"INCLINATION":98.813,"RA_OF_ASC_NODE":49.6666,"ARG_OF_PERICENTER":177.2646,"MEAN_ANOMALY":251.951,"EPHEMERIS_TYPE":0,"CLASSIFICATION_TYPE":"U","NORAD_CAT_ID":30069,"ELEMENT_SET_NO":999,"REV_AT_EPOCH":98019,"BSTAR":0.00022673229,"MEAN_MOTION_DOT":3.28e-6,"MEAN_MOTION_DDOT":0},{"OBJECT_NAME":"FENGYUN 1C DEB","OBJECT_ID":"1999-025PX","EPOCH":"2026-03-06T02:32:09.206304","MEAN_MOTION":14.10769741,"ECCENTRICITY":0.03272896,"INCLINATION":98.2724,"RA_OF_ASC_NODE":123.3489,"ARG_OF_PERICENTER":79.3289,"MEAN_ANOMALY":314.0814,"EPHEMERIS_TYPE":0,"CLASSIFICATION_TYPE":"U","NORAD_CAT_ID":30070,"ELEMENT_SET_NO":999,"REV_AT_EPOCH":97054,"BSTAR":0.0012580144,"MEAN_MOTION_DOT":3.682e-5,"MEAN_MOTION_DDOT":0},{"OBJECT_NAME":"FENGYUN 1C DEB","OBJECT_ID":"1999-025PY","EPOCH":"2026-03-06T05:30:49.365792","MEAN_MOTION":14.54052899,"ECCENTRICITY":0.00395346,"INCLINATION":98.6539,"RA_OF_ASC_NODE":172.1896,"ARG_OF_PERICENTER":211.3836,"MEAN_ANOMALY":180.2642,"EPHEMERIS_TYPE":0,"CLASSIFICATION_TYPE":"U","NORAD_CAT_ID":30071,"ELEMENT_SET_NO":999,"REV_AT_EPOCH":99439,"BSTAR":0.0028886271,"MEAN_MOTION_DOT":0.00012287,"MEAN_MOTION_DDOT":0},{"OBJECT_NAME":"FENGYUN 1C DEB","OBJECT_ID":"1999-025PZ","EPOCH":"2026-03-05T09:20:15.331776","MEAN_MOTION":14.39730673,"ECCENTRICITY":0.00542,"INCLINATION":99.0772,"RA_OF_ASC_NODE":222.4063,"ARG_OF_PERICENTER":31.6504,"MEAN_ANOMALY":328.7922,"EPHEMERIS_TYPE":0,"CLASSIFICATION_TYPE":"U","NORAD_CAT_ID":30072,"ELEMENT_SET_NO":999,"REV_AT_EPOCH":98359,"BSTAR":0.0030907,"MEAN_MOTION_DOT":9.814e-5,"MEAN_MOTION_DDOT":0},{"OBJECT_NAME":"FENGYUN 1C DEB","OBJECT_ID":"1999-025QA","EPOCH":"2026-03-05T22:32:25.216800","MEAN_MOTION":14.19260504,"ECCENTRICITY":0.00546475,"INCLINATION":99.419,"RA_OF_ASC_NODE":48.1779,"ARG_OF_PERICENTER":45.8843,"MEAN_ANOMALY":16.6364,"EPHEMERIS_TYPE":0,"CLASSIFICATION_TYPE":"U","NORAD_CAT_ID":30073,"ELEMENT_SET_NO":999,"REV_AT_EPOCH":98105,"BSTAR":0.0020077917,"MEAN_MOTION_DOT":4.227e-5,"MEAN_MOTION_DDOT":0},{"OBJECT_NAME":"FENGYUN 1C DEB","OBJECT_ID":"1999-025QB","EPOCH":"2026-03-03T03:13:22.941120","MEAN_MOTION":14.13300028,"ECCENTRICITY":0.00940512,"INCLINATION":99.12,"RA_OF_ASC_NODE":134.9303,"ARG_OF_PERICENTER":284.2864,"MEAN_ANOMALY":74.7878,"EPHEMERIS_TYPE":0,"CLASSIFICATION_TYPE":"U","NORAD_CAT_ID":30074,"ELEMENT_SET_NO":999,"REV_AT_EPOCH":97797,"BSTAR":0.001345306,"MEAN_MOTION_DOT":2.585e-5,"MEAN_MOTION_DDOT":0}]
